{
  "type": "FeatureCollection",
  "features": [
    {
      "type": "Feature",
      "properties": {
        "norad_id": 40938,
        "name": "BEIDOU-3S IGSO-2S (C56)",
        "group": "beidou",
        "lat": -8.531256622543001,
        "lon": -106.31999736282097,
        "alt_km": 36031.30480719996,
        "timestamp": "2025-12-10T04:57:29.883271+00:00",
        "meta_object_name": "BEIDOU-3S IGSO-2S (C56)",
        "meta_object_id": "2015-053A",
        "meta_epoch": "2025-12-09T17:40:38.610336",
        "meta_mean_motion": 1.00270089,
        "meta_eccentricity": 0.0061061,
        "meta_inclination": 49.5164,
        "meta_ra_of_asc_node": 261.0407,
        "meta_arg_of_pericenter": 188.3574,
        "meta_mean_anomaly": 350.535,
        "meta_ephemeris_type": 0,
        "meta_classification_type": "U",
        "meta_norad_cat_id": 40938,
        "meta_element_set_no": 999,
        "meta_rev_at_epoch": 3745,
        "meta_bstar": 0,
        "meta_mean_motion_dot": -1.49e-06,
        "meta_mean_motion_ddot": 0,
        "tle_line1": "1 40938U 15053A   25343.73655799 -.00000149  00000+0  00000+0 0  9999",
        "tle_line2": "2 40938  49.5164 261.0407 0061061 188.3574 350.5350  1.00270089 37452"
      },
      "geometry": {
        "type": "Point",
        "coordinates": [
          -106.31999736282097,
          -8.531256622543001
        ]
      }
    },
    {
      "type": "Feature",
      "properties": {
        "norad_id": 41434,
        "name": "BEIDOU-2 IGSO-6 (C13)",
        "group": "beidou",
        "lat": -22.433150809956615,
        "lon": -126.23923691931401,
        "alt_km": 35550.41055098037,
        "timestamp": "2025-12-10T04:57:29.883284+00:00",
        "meta_object_name": "BEIDOU-2 IGSO-6 (C13)",
        "meta_object_id": "2016-021A",
        "meta_epoch": "2025-12-03T15:53:57.382080",
        "meta_mean_motion": 1.00293531,
        "meta_eccentricity": 0.00596341,
        "meta_inclination": 59.9536,
        "meta_ra_of_asc_node": 39.991,
        "meta_arg_of_pericenter": 228.541,
        "meta_mean_anomaly": 135.1173,
        "meta_ephemeris_type": 0,
        "meta_classification_type": "U",
        "meta_norad_cat_id": 41434,
        "meta_element_set_no": 999,
        "meta_rev_at_epoch": 3552,
        "meta_bstar": 0,
        "meta_mean_motion_dot": -1.61e-06,
        "meta_mean_motion_ddot": 0,
        "tle_line1": "1 41434U 16021A   25337.66246970 -.00000161  00000+0  00000+0 0  9993",
        "tle_line2": "2 41434  59.9536  39.9910 0059634 228.5410 135.1173  1.00293531 35525"
      },
      "geometry": {
        "type": "Point",
        "coordinates": [
          -126.23923691931401,
          -22.433150809956615
        ]
      }
    },
    {
      "type": "Feature",
      "properties": {
        "norad_id": 41586,
        "name": "BEIDOU-2 G7 (C03)",
        "group": "beidou",
        "lat": -0.5102034820627193,
        "lon": -96.00567842610263,
        "alt_km": 35804.90957333111,
        "timestamp": "2025-12-10T04:57:29.883298+00:00",
        "meta_object_name": "BEIDOU-2 G7 (C03)",
        "meta_object_id": "2016-037A",
        "meta_epoch": "2025-12-09T19:14:08.361024",
        "meta_mean_motion": 1.00268395,
        "meta_eccentricity": 0.0004343,
        "meta_inclination": 1.7498,
        "meta_ra_of_asc_node": 67.7133,
        "meta_arg_of_pericenter": 1.0737,
        "meta_mean_anomaly": 48.9945,
        "meta_ephemeris_type": 0,
        "meta_classification_type": "U",
        "meta_norad_cat_id": 41586,
        "meta_element_set_no": 999,
        "meta_rev_at_epoch": 499,
        "meta_bstar": 0,
        "meta_mean_motion_dot": -3.51e-06,
        "meta_mean_motion_ddot": 0,
        "tle_line1": "1 41586U 16037A   25343.80148566 -.00000351  00000+0  00000+0 0  9994",
        "tle_line2": "2 41586   1.7498  67.7133 0004343   1.0737  48.9945  1.00268395  4999"
      },
      "geometry": {
        "type": "Point",
        "coordinates": [
          -96.00567842610263,
          -0.5102034820627193
        ]
      }
    },
    {
      "type": "Feature",
      "properties": {
        "norad_id": 43001,
        "name": "BEIDOU-3 M1 (C19)",
        "group": "beidou",
        "lat": 43.01336045856185,
        "lon": 107.38462778813621,
        "alt_km": 21531.879355632533,
        "timestamp": "2025-12-10T04:57:29.883310+00:00",
        "meta_object_name": "BEIDOU-3 M1 (C19)",
        "meta_object_id": "2017-069A",
        "meta_epoch": "2025-12-09T14:06:31.411584",
        "meta_mean_motion": 1.8623096,
        "meta_eccentricity": 0.0009028,
        "meta_inclination": 56.5248,
        "meta_ra_of_asc_node": 69.3379,
        "meta_arg_of_pericenter": 303.8833,
        "meta_mean_anomaly": 56.0533,
        "meta_ephemeris_type": 0,
        "meta_classification_type": "U",
        "meta_norad_cat_id": 43001,
        "meta_element_set_no": 999,
        "meta_rev_at_epoch": 5507,
        "meta_bstar": 0,
        "meta_mean_motion_dot": -4.9e-07,
        "meta_mean_motion_ddot": 0,
        "tle_line1": "1 43001U 17069A   25343.58786356 -.00000049  00000+0  00000+0 0  9998",
        "tle_line2": "2 43001  56.5248  69.3379 0009028 303.8833  56.0533  1.86230960 55078"
      },
      "geometry": {
        "type": "Point",
        "coordinates": [
          107.38462778813621,
          43.01336045856185
        ]
      }
    },
    {
      "type": "Feature",
      "properties": {
        "norad_id": 43002,
        "name": "BEIDOU-3 M2 (C20)",
        "group": "beidou",
        "lat": 56.03865917182231,
        "lon": 170.52252635679977,
        "alt_km": 21531.29531256404,
        "timestamp": "2025-12-10T04:57:29.883321+00:00",
        "meta_object_name": "BEIDOU-3 M2 (C20)",
        "meta_object_id": "2017-069B",
        "meta_epoch": "2025-12-09T12:37:45.819264",
        "meta_mean_motion": 1.8623055,
        "meta_eccentricity": 0.0006254,
        "meta_inclination": 56.5238,
        "meta_ra_of_asc_node": 69.3764,
        "meta_arg_of_pericenter": 332.6094,
        "meta_mean_anomaly": 27.38,
        "meta_ephemeris_type": 0,
        "meta_classification_type": "U",
        "meta_norad_cat_id": 43002,
        "meta_element_set_no": 999,
        "meta_rev_at_epoch": 5506,
        "meta_bstar": 0,
        "meta_mean_motion_dot": -4.8e-07,
        "meta_mean_motion_ddot": 0,
        "tle_line1": "1 43002U 17069B   25343.52622476 -.00000048  00000+0  00000+0 0  9994",
        "tle_line2": "2 43002  56.5238  69.3764 0006254 332.6094  27.3800  1.86230550 55065"
      },
      "geometry": {
        "type": "Point",
        "coordinates": [
          170.52252635679977,
          56.03865917182231
        ]
      }
    },
    {
      "type": "Feature",
      "properties": {
        "norad_id": 43107,
        "name": "BEIDOU-3 M7 (C27)",
        "group": "beidou",
        "lat": -54.4709179622412,
        "lon": -143.75736841117742,
        "alt_km": 21540.636035444804,
        "timestamp": "2025-12-10T04:57:29.883333+00:00",
        "meta_object_name": "BEIDOU-3 M7 (C27)",
        "meta_object_id": "2018-003A",
        "meta_epoch": "2025-12-09T06:27:46.625760",
        "meta_mean_motion": 1.86232164,
        "meta_eccentricity": 0.00025806,
        "meta_inclination": 54.4998,
        "meta_ra_of_asc_node": 308.9358,
        "meta_arg_of_pericenter": 71.0614,
        "meta_mean_anomaly": 288.9559,
        "meta_ephemeris_type": 0,
        "meta_classification_type": "U",
        "meta_norad_cat_id": 43107,
        "meta_element_set_no": 999,
        "meta_rev_at_epoch": 5381,
        "meta_bstar": 0,
        "meta_mean_motion_dot": -7.7e-07,
        "meta_mean_motion_ddot": 0,
        "tle_line1": "1 43107U 18003A   25343.26928965 -.00000077  00000+0  00000+0 0  9994",
        "tle_line2": "2 43107  54.4998 308.9358 0002580  71.0614 288.9559  1.86232164 53812"
      },
      "geometry": {
        "type": "Point",
        "coordinates": [
          -143.75736841117742,
          -54.4709179622412
        ]
      }
    },
    {
      "type": "Feature",
      "properties": {
        "norad_id": 43108,
        "name": "BEIDOU-3 M8 (C28)",
        "group": "beidou",
        "lat": -41.59728775488956,
        "lon": -90.43386570429072,
        "alt_km": 21521.526094906018,
        "timestamp": "2025-12-10T04:57:29.883344+00:00",
        "meta_object_name": "BEIDOU-3 M8 (C28)",
        "meta_object_id": "2018-003B",
        "meta_epoch": "2025-12-09T05:08:23.746272",
        "meta_mean_motion": 1.86230654,
        "meta_eccentricity": 0.00048225,
        "meta_inclination": 54.4927,
        "meta_ra_of_asc_node": 308.9205,
        "meta_arg_of_pericenter": 273.4107,
        "meta_mean_anomaly": 86.5234,
        "meta_ephemeris_type": 0,
        "meta_classification_type": "U",
        "meta_norad_cat_id": 43108,
        "meta_element_set_no": 999,
        "meta_rev_at_epoch": 5382,
        "meta_bstar": 0,
        "meta_mean_motion_dot": -7.7e-07,
        "meta_mean_motion_ddot": 0,
        "tle_line1": "1 43108U 18003B   25343.21416373 -.00000077  00000+0  00000+0 0  9995",
        "tle_line2": "2 43108  54.4927 308.9205 0004822 273.4107  86.5234  1.86230654 53827"
      },
      "geometry": {
        "type": "Point",
        "coordinates": [
          -90.43386570429072,
          -41.59728775488956
        ]
      }
    }
  ]
}